<?xml version="1.0" encoding="UTF-8" standalone="no"?><gpx xmlns="http://www.topografix.com/GPX/1/1" xmlns:xsi="http://www.w3.org/2001/XMLSchema-instance" creator="Sports Tracker" version="1.1" xsi:schemaLocation="http://www.topografix.com/GPX/1/1 http://www.topografix.com/GPX/1/1/gpx.xsd"><metadata><name>Heide en landgoederenroute Midden-Brabant</name><author><name>marnixhofland</name></author></metadata><wpt lat="51.48706" lon="5.052662"><name>Begin</name><desc>Auto-generated</desc><type>Begin</type></wpt><wpt lat="51.487144" lon="5.051853"><name>End</name><desc>Auto-generated</desc><type>End</type></wpt><rte><rtept lat="51.48706" lon="5.052662"><ele>19.30119</ele></rtept><rtept lat="51.487045" lon="5.052828"><ele>19.30119</ele></rtept><rtept lat="51.487026" lon="5.053035"><ele>19.30119</ele></rtept><rtept lat="51.486946" lon="5.053838"><ele>19.30119</ele></rtept><rtept lat="51.486866" lon="5.054669"><ele>19.32287</ele></rtept><rtept lat="51.486816" lon="5.055183"><ele>19.34206</ele></rtept><rtept lat="51.486427" lon="5.058427"><ele>19.34977</ele></rtept><rtept lat="51.487812" lon="5.058758"><ele>18.95988</ele></rtept><rtept lat="51.490772" lon="5.059267"><ele>16.92761</ele></rtept><rtept lat="51.49211" lon="5.05953"><ele>16.64428</ele></rtept><rtept lat="51.492474" lon="5.061397"><ele>16.70505</ele></rtept><rtept lat="51.492725" lon="5.062709"><ele>16.89556</ele></rtept><rtept lat="51.49318" lon="5.063453"><ele>16.89016</ele></rtept><rtept lat="51.493885" lon="5.064674"><ele>16.73582</ele></rtept><rtept lat="51.495026" lon="5.066695"><ele>16.30184</ele></rtept><rtept lat="51.495068" lon="5.066765"><ele>16.28505</ele></rtept><rtept lat="51.495308" lon="5.067185"><ele>16.18411</ele></rtept><rtept lat="51.495876" lon="5.06824"><ele>16.3692</ele></rtept><rtept lat="51.495872" lon="5.0684"><ele>16.3931</ele></rtept><rtept lat="51.495907" lon="5.068672"><ele>16.43453</ele></rtept><rtept lat="51.495995" lon="5.068827"><ele>16.46598</ele></rtept><rtept lat="51.49624" lon="5.068826"><ele>16.5242</ele></rtept><rtept lat="51.497147" lon="5.070484"><ele>16.51419</ele></rtept><rtept lat="51.497177" lon="5.070644"><ele>16.50549</ele></rtept><rtept lat="51.497227" lon="5.070757"><ele>16.49827</ele></rtept><rtept lat="51.497417" lon="5.071205"><ele>16.46968</ele></rtept><rtept lat="51.497536" lon="5.071394"><ele>16.45577</ele></rtept><rtept lat="51.49763" lon="5.071417"><ele>16.4637</ele></rtept><rtept lat="51.497696" lon="5.071656"><ele>16.51258</ele></rtept><rtept lat="51.498436" lon="5.076269"><ele>17.48542</ele></rtept><rtept lat="51.498554" lon="5.078176"><ele>17.7228</ele></rtept><rtept lat="51.498516" lon="5.078228"><ele>17.72824</ele></rtept><rtept lat="51.498512" lon="5.078361"><ele>17.73726</ele></rtept><rtept lat="51.501236" lon="5.083317"><ele>18.0037</ele></rtept><rtept lat="51.50125" lon="5.083348"><ele>18.0032</ele></rtept><rtept lat="51.501995" lon="5.08298"><ele>17.95943</ele></rtept><rtept lat="51.503647" lon="5.08203"><ele>17.85944</ele></rtept><rtept lat="51.504414" lon="5.083461"><ele>17.92458</ele></rtept><rtept lat="51.505585" lon="5.085563"><ele>17.73265</ele></rtept><rtept lat="51.50669" lon="5.087548"><ele>17.24582</ele></rtept><rtept lat="51.507614" lon="5.089202"><ele>16.84613</ele></rtept><rtept lat="51.510323" lon="5.093959"><ele>16.1958</ele></rtept><rtept lat="51.510044" lon="5.095589"><ele>16.03623</ele></rtept><rtept lat="51.50996" lon="5.096061"><ele>15.99512</ele></rtept><rtept lat="51.509624" lon="5.097991"><ele>15.85609</ele></rtept><rtept lat="51.509384" lon="5.098833"><ele>15.82337</ele></rtept><rtept lat="51.50892" lon="5.100461"><ele>15.717</ele></rtept><rtept lat="51.50893" lon="5.10047"><ele>15.71372</ele></rtept><rtept lat="51.50899" lon="5.100515"><ele>15.6991</ele></rtept><rtept lat="51.509014" lon="5.10053"><ele>15.6939</ele></rtept><rtept lat="51.509033" lon="5.100459"><ele>15.68334</ele></rtept><rtept lat="51.509113" lon="5.100528"><ele>15.66376</ele></rtept><rtept lat="51.509285" lon="5.100678"><ele>15.62134</ele></rtept><rtept lat="51.508884" lon="5.102097"><ele>15.41016</ele></rtept><rtept lat="51.5088" lon="5.102396"><ele>15.38834</ele></rtept><rtept lat="51.50912" lon="5.103548"><ele>15.4345</ele></rtept><rtept lat="51.509487" lon="5.105067"><ele>15.53545</ele></rtept><rtept lat="51.50965" lon="5.10606"><ele>15.88775</ele></rtept><rtept lat="51.509964" lon="5.109324"><ele>16.84365</ele></rtept><rtept lat="51.51035" lon="5.111597"><ele>17.01071</ele></rtept><rtept lat="51.51061" lon="5.11336"><ele>16.7725</ele></rtept><rtept lat="51.510647" lon="5.113561"><ele>16.73729</ele></rtept><rtept lat="51.510693" lon="5.113705"><ele>16.70926</ele></rtept><rtept lat="51.510765" lon="5.113836"><ele>16.67821</ele></rtept><rtept lat="51.510857" lon="5.113928"><ele>16.64813</ele></rtept><rtept lat="51.51103" lon="5.113934"><ele>16.59906</ele></rtept><rtept lat="51.511086" lon="5.113973"><ele>16.58133</ele></rtept><rtept lat="51.51166" lon="5.117676"><ele>15.88518</ele></rtept><rtept lat="51.511562" lon="5.117894"><ele>15.83441</ele></rtept><rtept lat="51.511337" lon="5.118654"><ele>15.67935</ele></rtept><rtept lat="51.510612" lon="5.121494"><ele>15.25779</ele></rtept><rtept lat="51.51033" lon="5.122895"><ele>15.39865</ele></rtept><rtept lat="51.5109" lon="5.12332"><ele>15.49527</ele></rtept><rtept lat="51.51127" lon="5.12368"><ele>15.65266</ele></rtept><rtept lat="51.51146" lon="5.12397"><ele>15.7495</ele></rtept><rtept lat="51.51178" lon="5.124713"><ele>15.95752</ele></rtept><rtept lat="51.511856" lon="5.124978"><ele>16.02432</ele></rtept><rtept lat="51.51214" lon="5.125987"><ele>16.16645</ele></rtept><rtept lat="51.51234" lon="5.126698"><ele>16.17376</ele></rtept><rtept lat="51.51249" lon="5.12718"><ele>16.1788</ele></rtept><rtept lat="51.51259" lon="5.12734"><ele>16.18092</ele></rtept><rtept lat="51.51272" lon="5.12743"><ele>16.18305</ele></rtept><rtept lat="51.51294" lon="5.12743"><ele>16.18635</ele></rtept><rtept lat="51.513004" lon="5.127381"><ele>16.18743</ele></rtept><rtept lat="51.51306" lon="5.12734"><ele>16.18834</ele></rtept><rtept lat="51.513134" lon="5.127175"><ele>16.16255</ele></rtept><rtept lat="51.513176" lon="5.126998"><ele>16.13262</ele></rtept><rtept lat="51.513184" lon="5.126757"><ele>16.09424</ele></rtept><rtept lat="51.51315" lon="5.12645"><ele>16.04464</ele></rtept><rtept lat="51.51283" lon="5.12515"><ele>15.82249</ele></rtept><rtept lat="51.512302" lon="5.125504"><ele>15.65036</ele></rtept><rtept lat="51.512245" lon="5.125546"><ele>15.62522</ele></rtept><rtept lat="51.511967" lon="5.125736"><ele>15.50951</ele></rtept><rtept lat="51.51163" lon="5.126008"><ele>15.36498</ele></rtept><rtept lat="51.511703" lon="5.126109"><ele>15.32797</ele></rtept><rtept lat="51.511787" lon="5.126225"><ele>15.286</ele></rtept><rtept lat="51.511986" lon="5.1265"><ele>15.18488</ele></rtept><rtept lat="51.51228" lon="5.127319"><ele>15.04847</ele></rtept><rtept lat="51.51251" lon="5.127709"><ele>15.06464</ele></rtept><rtept lat="51.51294" lon="5.12917"><ele>15.11328</ele></rtept><rtept lat="51.51319" lon="5.12954"><ele>15.13581</ele></rtept><rtept lat="51.513443" lon="5.130005"><ele>15.18064</ele></rtept><rtept lat="51.51404" lon="5.131394"><ele>15.30308</ele></rtept><rtept lat="51.51405" lon="5.131405"><ele>15.30407</ele></rtept><rtept lat="51.514908" lon="5.133766"><ele>14.73194</ele></rtept><rtept lat="51.51498" lon="5.134247"><ele>14.6029</ele></rtept><rtept lat="51.51514" lon="5.134676"><ele>14.53209</ele></rtept><rtept lat="51.51536" lon="5.134948"><ele>14.47939</ele></rtept><rtept lat="51.51509" lon="5.134895"><ele>14.42785</ele></rtept><rtept lat="51.51463" lon="5.134744"><ele>14.33865</ele></rtept><rtept lat="51.514397" lon="5.134809"><ele>14.29382</ele></rtept><rtept lat="51.51411" lon="5.134983"><ele>14.24969</ele></rtept><rtept lat="51.513157" lon="5.135672"><ele>14.56708</ele></rtept><rtept lat="51.512775" lon="5.136046"><ele>14.7032</ele></rtept><rtept lat="51.512566" lon="5.136334"><ele>14.78682</ele></rtept><rtept lat="51.51256" lon="5.13643"><ele>14.78403</ele></rtept><rtept lat="51.51248" lon="5.1364"><ele>14.77878</ele></rtept><rtept lat="51.51206" lon="5.13685"><ele>14.74651</ele></rtept><rtept lat="51.51194" lon="5.13703"><ele>14.73601</ele></rtept><rtept lat="51.51173" lon="5.13745"><ele>14.71453</ele></rtept><rtept lat="51.51173" lon="5.13844"><ele>14.67514</ele></rtept><rtept lat="51.51065" lon="5.138785"><ele>14.45407</ele></rtept><rtept lat="51.509636" lon="5.139109"><ele>14.26613</ele></rtept><rtept lat="51.508694" lon="5.139503"><ele>14.14591</ele></rtept><rtept lat="51.50752" lon="5.14037"><ele>13.96917</ele></rtept><rtept lat="51.507313" lon="5.140445"><ele>13.93859</ele></rtept><rtept lat="51.506725" lon="5.140005"><ele>13.84367</ele></rtept><rtept lat="51.5057" lon="5.139417"><ele>14.08815</ele></rtept><rtept lat="51.505165" lon="5.139311"><ele>14.24777</ele></rtept><rtept lat="51.504826" lon="5.138882"><ele>14.3465</ele></rtept><rtept lat="51.50426" lon="5.138377"><ele>14.32812</ele></rtept><rtept lat="51.50406" lon="5.138195"><ele>14.32148</ele></rtept><rtept lat="51.503353" lon="5.137735"><ele>14.29979</ele></rtept><rtept lat="51.503" lon="5.138827"><ele>14.32099</ele></rtept><rtept lat="51.502846" lon="5.139449"><ele>14.33498</ele></rtept><rtept lat="51.502907" lon="5.139677"><ele>14.34015</ele></rtept><rtept lat="51.503407" lon="5.141267"><ele>14.51236</ele></rtept><rtept lat="51.50398" lon="5.143864"><ele>14.6927</ele></rtept><rtept lat="51.504112" lon="5.144264"><ele>14.60813</ele></rtept><rtept lat="51.503857" lon="5.144933"><ele>14.4612</ele></rtept><rtept lat="51.503872" lon="5.145241"><ele>14.40335</ele></rtept><rtept lat="51.504" lon="5.146105"><ele>14.21111</ele></rtept><rtept lat="51.504047" lon="5.147446"><ele>13.85614</ele></rtept><rtept lat="51.5041" lon="5.147958"><ele>13.7188</ele></rtept><rtept lat="51.504158" lon="5.148318"><ele>13.62071</ele></rtept><rtept lat="51.50441" lon="5.149064"><ele>13.49608</ele></rtept><rtept lat="51.50441" lon="5.149205"><ele>13.48545</ele></rtept><rtept lat="51.5043" lon="5.149549"><ele>13.45625</ele></rtept><rtept lat="51.50427" lon="5.149826"><ele>13.43505</ele></rtept><rtept lat="51.504276" lon="5.150075"><ele>13.41625</ele></rtept><rtept lat="51.504295" lon="5.150578"><ele>13.37828</ele></rtept><rtept lat="51.504436" lon="5.15153"><ele>13.29059</ele></rtept><rtept lat="51.504997" lon="5.153726"><ele>12.93136</ele></rtept><rtept lat="51.50448" lon="5.154975"><ele>12.64181</ele></rtept><rtept lat="51.504425" lon="5.155303"><ele>12.5723</ele></rtept><rtept lat="51.504414" lon="5.155625"><ele>12.50632</ele></rtept><rtept lat="51.504436" lon="5.155963"><ele>12.43677</ele></rtept><rtept lat="51.504726" lon="5.157174"><ele>12.39156</ele></rtept><rtept lat="51.504772" lon="5.157273"><ele>12.41392</ele></rtept><rtept lat="51.504784" lon="5.157354"><ele>12.42851</ele></rtept><rtept lat="51.50498" lon="5.157775"><ele>12.52127</ele></rtept><rtept lat="51.50511" lon="5.157965"><ele>12.57138</ele></rtept><rtept lat="51.505184" lon="5.158093"><ele>12.60265</ele></rtept><rtept lat="51.50535" lon="5.158638"><ele>12.7094</ele></rtept><rtept lat="51.505726" lon="5.159698"><ele>12.75634</ele></rtept><rtept lat="51.50594" lon="5.1603"><ele>12.71331</ele></rtept><rtept lat="51.50565" lon="5.160323"><ele>12.68446</ele></rtept><rtept lat="51.505062" lon="5.160468"><ele>12.62514</ele></rtept><rtept lat="51.50471" lon="5.160616"><ele>12.45897</ele></rtept><rtept lat="51.504707" lon="5.160686"><ele>12.43679</ele></rtept><rtept lat="51.50458" lon="5.160746"><ele>12.3692</ele></rtept><rtept lat="51.504574" lon="5.161008"><ele>12.28641</ele></rtept><rtept lat="51.504414" lon="5.161582"><ele>12.08797</ele></rtept><rtept lat="51.504375" lon="5.163079"><ele>11.6948</ele></rtept><rtept lat="51.50455" lon="5.163449"><ele>11.67227</ele></rtept><rtept lat="51.504745" lon="5.163698"><ele>11.65314</ele></rtept><rtept lat="51.50492" lon="5.163926"><ele>11.63561</ele></rtept><rtept lat="51.505062" lon="5.164194"><ele>11.61857</ele></rtept><rtept lat="51.50515" lon="5.164511"><ele>11.60185</ele></rtept><rtept lat="51.505234" lon="5.16465"><ele>11.5925</ele></rtept><rtept lat="51.505333" lon="5.164747"><ele>11.58344</ele></rtept><rtept lat="51.50553" lon="5.165299"><ele>11.57253</ele></rtept><rtept lat="51.505623" lon="5.165476"><ele>11.57441</ele></rtept><rtept lat="51.50592" lon="5.16568"><ele>11.5786</ele></rtept><rtept lat="51.506226" lon="5.165992"><ele>11.5833</ele></rtept><rtept lat="51.506187" lon="5.16604"><ele>11.58393</ele></rtept><rtept lat="51.50614" lon="5.166083"><ele>11.58462</ele></rtept><rtept lat="51.50598" lon="5.166357"><ele>11.58767</ele></rtept><rtept lat="51.50594" lon="5.167016"><ele>11.59303</ele></rtept><rtept lat="51.505962" lon="5.167236"><ele>11.56751</ele></rtept><rtept lat="51.505974" lon="5.167617"><ele>11.52285</ele></rtept><rtept lat="51.50582" lon="5.168897"><ele>11.37025</ele></rtept><rtept lat="51.50566" lon="5.1696"><ele>11.28263</ele></rtept><rtept lat="51.50565" lon="5.169648"><ele>11.27664</ele></rtept><rtept lat="51.505413" lon="5.170343"><ele>11.22243</ele></rtept><rtept lat="51.504498" lon="5.17193"><ele>11.10659</ele></rtept><rtept lat="51.504128" lon="5.172361"><ele>11.15718</ele></rtept><rtept lat="51.503937" lon="5.172531"><ele>11.18927</ele></rtept><rtept lat="51.502476" lon="5.173332"><ele>11.50043</ele></rtept><rtept lat="51.501854" lon="5.173712"><ele>11.7569</ele></rtept><rtept lat="51.501503" lon="5.172604"><ele>12.05457</ele></rtept><rtept lat="51.501076" lon="5.171106"><ele>12.26749</ele></rtept><rtept lat="51.50078" lon="5.17024"><ele>12.39364</ele></rtept><rtept lat="51.5007" lon="5.17034"><ele>12.41444</ele></rtept><rtept lat="51.50025" lon="5.170594"><ele>12.4237</ele></rtept><rtept lat="51.499767" lon="5.171016"><ele>12.4166</ele></rtept><rtept lat="51.49942" lon="5.171329"><ele>12.41146</ele></rtept><rtept lat="51.498104" lon="5.173332"><ele>12.05554</ele></rtept><rtept lat="51.497963" lon="5.173425"><ele>12.01604</ele></rtept><rtept lat="51.49783" lon="5.173574"><ele>11.97493</ele></rtept><rtept lat="51.497593" lon="5.173662"><ele>11.96449</ele></rtept><rtept lat="51.496872" lon="5.17408"><ele>12.08202</ele></rtept><rtept lat="51.496296" lon="5.174349"><ele>12.17346</ele></rtept><rtept lat="51.495506" lon="5.174967"><ele>12.41179</ele></rtept><rtept lat="51.49454" lon="5.175152"><ele>12.73465</ele></rtept><rtept lat="51.492886" lon="5.17547"><ele>13.33804</ele></rtept><rtept lat="51.49213" lon="5.175371"><ele>13.53637</ele></rtept><rtept lat="51.490593" lon="5.174327"><ele>13.722</ele></rtept><rtept lat="51.490788" lon="5.175227"><ele>13.63891</ele></rtept><rtept lat="51.491356" lon="5.178766"><ele>12.99974</ele></rtept><rtept lat="51.49146" lon="5.179422"><ele>12.83783</ele></rtept><rtept lat="51.491642" lon="5.180019"><ele>12.64397</ele></rtept><rtept lat="51.49174" lon="5.180345"><ele>12.5344</ele></rtept><rtept lat="51.492004" lon="5.181155"><ele>12.25876</ele></rtept><rtept lat="51.49221" lon="5.181918"><ele>12.00822</ele></rtept><rtept lat="51.49231" lon="5.18229"><ele>11.95492</ele></rtept><rtept lat="51.49258" lon="5.183148"><ele>12.01787</ele></rtept><rtept lat="51.492813" lon="5.184114"><ele>12.08557</ele></rtept><rtept lat="51.491386" lon="5.184469"><ele>12.48288</ele></rtept><rtept lat="51.490807" lon="5.184667"><ele>12.68902</ele></rtept><rtept lat="51.490124" lon="5.184849"><ele>12.80001</ele></rtept><rtept lat="51.48927" lon="5.184972"><ele>12.87137</ele></rtept><rtept lat="51.488663" lon="5.185038"><ele>12.92041</ele></rtept><rtept lat="51.486675" lon="5.185253"><ele>12.98265</ele></rtept><rtept lat="51.486916" lon="5.186004"><ele>12.89644</ele></rtept><rtept lat="51.48728" lon="5.187877"><ele>12.78676</ele></rtept><rtept lat="51.487297" lon="5.188992"><ele>12.88233</ele></rtept><rtept lat="51.487347" lon="5.189371"><ele>12.91553</ele></rtept><rtept lat="51.487606" lon="5.19067"><ele>13.11665</ele></rtept><rtept lat="51.48776" lon="5.191426"><ele>13.3295</ele></rtept><rtept lat="51.487885" lon="5.192352"><ele>13.58328</ele></rtept><rtept lat="51.487988" lon="5.192906"><ele>13.73819</ele></rtept><rtept lat="51.48799" lon="5.193117"><ele>13.7839</ele></rtept><rtept lat="51.48796" lon="5.193841"><ele>13.90248</ele></rtept><rtept lat="51.48786" lon="5.194227"><ele>13.97047</ele></rtept><rtept lat="51.487553" lon="5.194761"><ele>14.08952</ele></rtept><rtept lat="51.487267" lon="5.195111"><ele>14.18363</ele></rtept><rtept lat="51.486443" lon="5.195956"><ele>14.53718</ele></rtept><rtept lat="51.48372" lon="5.195322"><ele>15.50854</ele></rtept><rtept lat="51.483646" lon="5.195334"><ele>15.5319</ele></rtept><rtept lat="51.483555" lon="5.19548"><ele>15.58289</ele></rtept><rtept lat="51.482944" lon="5.194896"><ele>15.86388</ele></rtept><rtept lat="51.48291" lon="5.194981"><ele>15.88924</ele></rtept><rtept lat="51.482807" lon="5.195069"><ele>15.93545</ele></rtept><rtept lat="51.48257" lon="5.195143"><ele>16.03071</ele></rtept><rtept lat="51.482605" lon="5.195323"><ele>16.07723</ele></rtept><rtept lat="51.482635" lon="5.195481"><ele>16.11809</ele></rtept><rtept lat="51.48284" lon="5.196531"><ele>16.28933</ele></rtept><rtept lat="51.483513" lon="5.200086"><ele>16.45203</ele></rtept><rtept lat="51.48397" lon="5.202521"><ele>16.38892</ele></rtept><rtept lat="51.48431" lon="5.20432"><ele>16.29848</ele></rtept><rtept lat="51.48458" lon="5.205777"><ele>16.28878</ele></rtept><rtept lat="51.48466" lon="5.206184"><ele>16.28607</ele></rtept><rtept lat="51.485092" lon="5.208421"><ele>16.40072</ele></rtept><rtept lat="51.485718" lon="5.210541"><ele>16.55062</ele></rtept><rtept lat="51.48579" lon="5.210798"><ele>16.56044</ele></rtept><rtept lat="51.48605" lon="5.21168"><ele>16.59417</ele></rtept><rtept lat="51.486004" lon="5.211724"><ele>16.59719</ele></rtept><rtept lat="51.485664" lon="5.212046"><ele>16.61865</ele></rtept><rtept lat="51.48546" lon="5.212102"><ele>16.60478</ele></rtept><rtept lat="51.48523" lon="5.211861"><ele>16.58685</ele></rtept><rtept lat="51.485" lon="5.211264"><ele>16.55792</ele></rtept><rtept lat="51.48486" lon="5.211313"><ele>16.54838</ele></rtept><rtept lat="51.484592" lon="5.211602"><ele>16.52722</ele></rtept><rtept lat="51.48446" lon="5.211683"><ele>16.51769</ele></rtept><rtept lat="51.484055" lon="5.211683"><ele>16.48959</ele></rtept><rtept lat="51.483837" lon="5.211609"><ele>16.47304</ele></rtept><rtept lat="51.483635" lon="5.211485"><ele>16.45663</ele></rtept><rtept lat="51.483265" lon="5.211498"><ele>16.42894</ele></rtept><rtept lat="51.48292" lon="5.211362"><ele>16.40221</ele></rtept><rtept lat="51.482723" lon="5.211362"><ele>16.38746</ele></rtept><rtept lat="51.48254" lon="5.211425"><ele>16.37331</ele></rtept><rtept lat="51.482372" lon="5.212851"><ele>16.30606</ele></rtept><rtept lat="51.48226" lon="5.213744"><ele>16.26396</ele></rtept><rtept lat="51.481617" lon="5.218954"><ele>16.82108</ele></rtept><rtept lat="51.48003" lon="5.21847"><ele>17.07897</ele></rtept><rtept lat="51.478394" lon="5.217971"><ele>17.3234</ele></rtept><rtept lat="51.475445" lon="5.217068"><ele>17.58118</ele></rtept><rtept lat="51.47276" lon="5.216247"><ele>17.52914</ele></rtept><rtept lat="51.47268" lon="5.216238"><ele>17.52413</ele></rtept><rtept lat="51.472603" lon="5.216233"><ele>17.519</ele></rtept><rtept lat="51.472733" lon="5.220247"><ele>17.10617</ele></rtept><rtept lat="51.472816" lon="5.222623"><ele>16.87349</ele></rtept><rtept lat="51.472668" lon="5.222497"><ele>16.84843</ele></rtept><rtept lat="51.471733" lon="5.221109"><ele>16.94991</ele></rtept><rtept lat="51.469124" lon="5.217234"><ele>17.39729</ele></rtept><rtept lat="51.46778" lon="5.222624"><ele>17.2026</ele></rtept><rtept lat="51.466812" lon="5.22652"><ele>17.13281</ele></rtept><rtept lat="51.466766" lon="5.226705"><ele>17.16742</ele></rtept><rtept lat="51.465744" lon="5.230824"><ele>18.01674</ele></rtept><rtept lat="51.465855" lon="5.231272"><ele>18.11805</ele></rtept><rtept lat="51.465794" lon="5.231432"><ele>18.15778</ele></rtept><rtept lat="51.465405" lon="5.233021"><ele>18.14772</ele></rtept><rtept lat="51.464817" lon="5.233973"><ele>18.14545</ele></rtept><rtept lat="51.464787" lon="5.234081"><ele>18.15487</ele></rtept><rtept lat="51.464794" lon="5.23425"><ele>18.16843</ele></rtept><rtept lat="51.46495" lon="5.234631"><ele>18.20491</ele></rtept><rtept lat="51.465034" lon="5.234985"><ele>18.23523</ele></rtept><rtept lat="51.465134" lon="5.236023"><ele>18.31924</ele></rtept><rtept lat="51.465122" lon="5.236267"><ele>18.33884</ele></rtept><rtept lat="51.46509" lon="5.2364"><ele>18.35011</ele></rtept><rtept lat="51.46509" lon="5.236562"><ele>18.36308</ele></rtept><rtept lat="51.465134" lon="5.236707"><ele>18.38639</ele></rtept><rtept lat="51.465195" lon="5.236829"><ele>18.41266</ele></rtept><rtept lat="51.465565" lon="5.237293"><ele>18.54051</ele></rtept><rtept lat="51.46563" lon="5.23748"><ele>18.57645</ele></rtept><rtept lat="51.46563" lon="5.23761"><ele>18.59843</ele></rtept><rtept lat="51.465336" lon="5.238997"><ele>18.84629</ele></rtept><rtept lat="51.46518" lon="5.240353"><ele>18.95603</ele></rtept><rtept lat="51.465126" lon="5.240866"><ele>18.99582</ele></rtept><rtept lat="51.464886" lon="5.242373"><ele>19.1253</ele></rtept><rtept lat="51.464565" lon="5.244366"><ele>19.3246</ele></rtept><rtept lat="51.46444" lon="5.245052"><ele>19.3111</ele></rtept><rtept lat="51.464294" lon="5.245306"><ele>19.27431</ele></rtept><rtept lat="51.464203" lon="5.245369"><ele>19.25696</ele></rtept><rtept lat="51.46434" lon="5.245595"><ele>19.22306</ele></rtept><rtept lat="51.464386" lon="5.245691"><ele>19.20998</ele></rtept><rtept lat="51.464436" lon="5.245701"><ele>19.20149</ele></rtept><rtept lat="51.464592" lon="5.246166"><ele>19.14491</ele></rtept><rtept lat="51.464645" lon="5.24643"><ele>19.11509</ele></rtept><rtept lat="51.464794" lon="5.247167"><ele>19.02964</ele></rtept><rtept lat="51.46483" lon="5.247334"><ele>19.0074</ele></rtept><rtept lat="51.464867" lon="5.247515"><ele>18.9833</ele></rtept><rtept lat="51.465004" lon="5.248124"><ele>18.90143</ele></rtept><rtept lat="51.464317" lon="5.248447"><ele>18.75661</ele></rtept><rtept lat="51.46382" lon="5.248517"><ele>18.69067</ele></rtept><rtept lat="51.463768" lon="5.248756"><ele>18.70437</ele></rtept><rtept lat="51.463726" lon="5.249172"><ele>18.72708</ele></rtept><rtept lat="51.4638" lon="5.249324"><ele>18.73729</ele></rtept><rtept lat="51.463905" lon="5.249562"><ele>18.75328</ele></rtept><rtept lat="51.463963" lon="5.250085"><ele>18.78189</ele></rtept><rtept lat="51.46414" lon="5.25027"><ele>18.80034</ele></rtept><rtept lat="51.464222" lon="5.250424"><ele>18.81127</ele></rtept><rtept lat="51.464294" lon="5.250908"><ele>18.83542</ele></rtept><rtept lat="51.464325" lon="5.250994"><ele>18.83459</ele></rtept><rtept lat="51.46387" lon="5.251384"><ele>18.8276</ele></rtept><rtept lat="51.463814" lon="5.251357"><ele>18.82682</ele></rtept><rtept lat="51.46357" lon="5.251414"><ele>18.82346</ele></rtept><rtept lat="51.463413" lon="5.251466"><ele>18.82128</ele></rtept><rtept lat="51.46336" lon="5.251529"><ele>18.8204</ele></rtept><rtept lat="51.463226" lon="5.25189"><ele>18.81684</ele></rtept><rtept lat="51.462925" lon="5.252228"><ele>18.81185</ele></rtept><rtept lat="51.462715" lon="5.25232"><ele>18.83692</ele></rtept><rtept lat="51.46202" lon="5.252443"><ele>18.93528</ele></rtept><rtept lat="51.461956" lon="5.252449"><ele>18.94444</ele></rtept><rtept lat="51.46184" lon="5.25244"><ele>18.96077</ele></rtept><rtept lat="51.461643" lon="5.252327"><ele>18.99034</ele></rtept><rtept lat="51.461143" lon="5.251862"><ele>19.08602</ele></rtept><rtept lat="51.46014" lon="5.250865"><ele>19.60978</ele></rtept><rtept lat="51.459812" lon="5.250295"><ele>19.82334</ele></rtept><rtept lat="51.459755" lon="5.250245"><ele>19.8525</ele></rtept><rtept lat="51.459557" lon="5.25015"><ele>19.90045</ele></rtept><rtept lat="51.45945" lon="5.250165"><ele>19.92322</ele></rtept><rtept lat="51.45937" lon="5.250128"><ele>19.9409</ele></rtept><rtept lat="51.459045" lon="5.249979"><ele>20.01127</ele></rtept><rtept lat="51.458733" lon="5.249924"><ele>20.07759</ele></rtept><rtept lat="51.458626" lon="5.24995"><ele>20.10032</ele></rtept><rtept lat="51.458405" lon="5.249841"><ele>20.14907</ele></rtept><rtept lat="51.457897" lon="5.249775"><ele>20.23226</ele></rtept><rtept lat="51.456726" lon="5.24949"><ele>20.13617</ele></rtept><rtept lat="51.455627" lon="5.249269"><ele>20.00237</ele></rtept><rtept lat="51.454994" lon="5.249159"><ele>19.90129</ele></rtept><rtept lat="51.454952" lon="5.24922"><ele>19.89245</ele></rtept><rtept lat="51.45481" lon="5.249112"><ele>19.86776</ele></rtept><rtept lat="51.45248" lon="5.248688"><ele>19.99016</ele></rtept><rtept lat="51.452473" lon="5.248782"><ele>20.02479</ele></rtept><rtept lat="51.45208" lon="5.247876"><ele>20.4284</ele></rtept><rtept lat="51.452003" lon="5.247702"><ele>20.50596</ele></rtept><rtept lat="51.45168" lon="5.246732"><ele>20.90713</ele></rtept><rtept lat="51.45248" lon="5.245505"><ele>21.3538</ele></rtept><rtept lat="51.452682" lon="5.245118"><ele>21.4768</ele></rtept><rtept lat="51.452847" lon="5.24491"><ele>21.5598</ele></rtept><rtept lat="51.452934" lon="5.244727"><ele>21.61564</ele></rtept><rtept lat="51.452923" lon="5.244284"><ele>21.587</ele></rtept><rtept lat="51.45282" lon="5.243985"><ele>21.51549</ele></rtept><rtept lat="51.452847" lon="5.243896"><ele>21.49458</ele></rtept><rtept lat="51.453194" lon="5.243444"><ele>21.34438</ele></rtept><rtept lat="51.45317" lon="5.24315"><ele>21.28226</ele></rtept><rtept lat="51.453163" lon="5.243027"><ele>21.25628</ele></rtept><rtept lat="51.453236" lon="5.242671"><ele>21.17766</ele></rtept><rtept lat="51.453213" lon="5.24242"><ele>21.12453</ele></rtept><rtept lat="51.453156" lon="5.242223"><ele>21.07853</ele></rtept><rtept lat="51.45316" lon="5.241869"><ele>21.00688</ele></rtept><rtept lat="51.45312" lon="5.241392"><ele>20.91259</ele></rtept><rtept lat="51.45307" lon="5.241038"><ele>20.84125</ele></rtept><rtept lat="51.452732" lon="5.240824"><ele>20.72688</ele></rtept><rtept lat="51.452347" lon="5.239793"><ele>20.49096</ele></rtept><rtept lat="51.45241" lon="5.239667"><ele>20.45702</ele></rtept><rtept lat="51.452675" lon="5.239619"><ele>20.36428</ele></rtept><rtept lat="51.452896" lon="5.239508"><ele>20.28375</ele></rtept><rtept lat="51.453403" lon="5.239214"><ele>20.09661</ele></rtept><rtept lat="51.454712" lon="5.238452"><ele>19.7898</ele></rtept><rtept lat="51.45477" lon="5.23837"><ele>19.78273</ele></rtept><rtept lat="51.45563" lon="5.237904"><ele>19.69952</ele></rtept><rtept lat="51.456554" lon="5.237407"><ele>19.86389</ele></rtept><rtept lat="51.456703" lon="5.237571"><ele>19.90089</ele></rtept><rtept lat="51.45713" lon="5.238055"><ele>20.0081</ele></rtept><rtept lat="51.457695" lon="5.23864"><ele>19.97113</ele></rtept><rtept lat="51.45937" lon="5.240509"><ele>19.54007</ele></rtept><rtept lat="51.46003" lon="5.241241"><ele>19.35158</ele></rtept><rtept lat="51.460503" lon="5.241769"><ele>19.28913</ele></rtept><rtept lat="51.460533" lon="5.241698"><ele>19.29203</ele></rtept><rtept lat="51.460632" lon="5.241465"><ele>19.30172</ele></rtept><rtept lat="51.45785" lon="5.235652"><ele>19.55671</ele></rtept><rtept lat="51.457752" lon="5.235458"><ele>19.56574</ele></rtept><rtept lat="51.456474" lon="5.232819"><ele>19.50069</ele></rtept><rtept lat="51.45377" lon="5.22724"><ele>19.45581</ele></rtept><rtept lat="51.45331" lon="5.2265"><ele>19.53889</ele></rtept><rtept lat="51.45308" lon="5.22603"><ele>19.59016</ele></rtept><rtept lat="51.4527" lon="5.22488"><ele>19.71794</ele></rtept><rtept lat="51.45263" lon="5.22473"><ele>19.73634</ele></rtept><rtept lat="51.45256" lon="5.22465"><ele>19.74987</ele></rtept><rtept lat="51.452477" lon="5.224629"><ele>19.76327</ele></rtept><rtept lat="51.452423" lon="5.224337"><ele>19.79317</ele></rtept><rtept lat="51.452393" lon="5.224185"><ele>19.80877</ele></rtept><rtept lat="51.452347" lon="5.224198"><ele>19.81598</ele></rtept><rtept lat="51.4522" lon="5.224113"><ele>19.84029</ele></rtept><rtept lat="51.45207" lon="5.22399"><ele>19.85309</ele></rtept><rtept lat="51.45223" lon="5.22367"><ele>19.85093</ele></rtept><rtept lat="51.45244" lon="5.22322"><ele>19.84797</ele></rtept><rtept lat="51.45261" lon="5.22276"><ele>19.84516</ele></rtept><rtept lat="51.45273" lon="5.22197"><ele>19.84088</ele></rtept><rtept lat="51.45282" lon="5.22068"><ele>19.71173</ele></rtept><rtept lat="51.45283" lon="5.21959"><ele>19.54768</ele></rtept><rtept lat="51.4528" lon="5.21873"><ele>19.41805</ele></rtept><rtept lat="51.4527" lon="5.21817"><ele>19.49913</ele></rtept><rtept lat="51.45256" lon="5.21771"><ele>19.59841</ele></rtept><rtept lat="51.45227" lon="5.21708"><ele>19.7503</ele></rtept><rtept lat="51.45189" lon="5.21646"><ele>19.91895</ele></rtept><rtept lat="51.45156" lon="5.21606"><ele>20.01963</ele></rtept><rtept lat="51.45106" lon="5.21559"><ele>20.13966</ele></rtept><rtept lat="51.44979" lon="5.214602"><ele>20.34478</ele></rtept><rtept lat="51.44909" lon="5.21406"><ele>20.35894</ele></rtept><rtept lat="51.448723" lon="5.213836"><ele>20.36606</ele></rtept><rtept lat="51.44863" lon="5.213767"><ele>20.36789</ele></rtept><rtept lat="51.44648" lon="5.21268"><ele>20.80376</ele></rtept><rtept lat="51.446346" lon="5.212613"><ele>20.81328</ele></rtept><rtept lat="51.445015" lon="5.212016"><ele>20.92239</ele></rtept><rtept lat="51.444736" lon="5.211776"><ele>20.98354</ele></rtept><rtept lat="51.444553" lon="5.211472"><ele>21.03457</ele></rtept><rtept lat="51.44435" lon="5.211695"><ele>21.08223</ele></rtept><rtept lat="51.443684" lon="5.21216"><ele>21.2231</ele></rtept><rtept lat="51.443604" lon="5.212262"><ele>21.24305</ele></rtept><rtept lat="51.44322" lon="5.212516"><ele>21.41019</ele></rtept><rtept lat="51.44301" lon="5.212583"><ele>21.49852</ele></rtept><rtept lat="51.44215" lon="5.213096"><ele>21.87973</ele></rtept><rtept lat="51.441772" lon="5.213193"><ele>21.99368</ele></rtept><rtept lat="51.441704" lon="5.213242"><ele>21.991</ele></rtept><rtept lat="51.441685" lon="5.213303"><ele>21.98948</ele></rtept><rtept lat="51.441624" lon="5.213266"><ele>21.9872</ele></rtept><rtept lat="51.44155" lon="5.213218"><ele>21.98439</ele></rtept><rtept lat="51.44154" lon="5.21312"><ele>21.98216</ele></rtept><rtept lat="51.441437" lon="5.212949"><ele>21.97693</ele></rtept><rtept lat="51.440994" lon="5.212685"><ele>21.96015</ele></rtept><rtept lat="51.44052" lon="5.212141"><ele>21.93944</ele></rtept><rtept lat="51.440487" lon="5.212216"><ele>21.93734</ele></rtept><rtept lat="51.440346" lon="5.212221"><ele>21.9279</ele></rtept><rtept lat="51.439945" lon="5.212074"><ele>21.83652</ele></rtept><rtept lat="51.43961" lon="5.211928"><ele>21.75937</ele></rtept><rtept lat="51.439312" lon="5.211798"><ele>21.69092</ele></rtept><rtept lat="51.439175" lon="5.211767"><ele>21.6607</ele></rtept><rtept lat="51.438904" lon="5.211714"><ele>21.59997</ele></rtept><rtept lat="51.43857" lon="5.21156"><ele>21.51595</ele></rtept><rtept lat="51.438347" lon="5.211524"><ele>21.43686</ele></rtept><rtept lat="51.4383" lon="5.211629"><ele>21.40829</ele></rtept><rtept lat="51.43819" lon="5.211679"><ele>21.36776</ele></rtept><rtept lat="51.43799" lon="5.211633"><ele>21.29473</ele></rtept><rtept lat="51.437702" lon="5.21157"><ele>21.1924</ele></rtept><rtept lat="51.43748" lon="5.211585"><ele>21.11434</ele></rtept><rtept lat="51.43721" lon="5.211494"><ele>21.01619</ele></rtept><rtept lat="51.43656" lon="5.211274"><ele>20.91841</ele></rtept><rtept lat="51.43603" lon="5.21114"><ele>20.95343</ele></rtept><rtept lat="51.434647" lon="5.210175"><ele>21.22335</ele></rtept><rtept lat="51.434498" lon="5.209954"><ele>21.29767</ele></rtept><rtept lat="51.434113" lon="5.21009"><ele>21.441</ele></rtept><rtept lat="51.433224" lon="5.210367"><ele>21.65243</ele></rtept><rtept lat="51.433212" lon="5.210229"><ele>21.64735</ele></rtept><rtept lat="51.433155" lon="5.210084"><ele>21.64114</ele></rtept><rtept lat="51.432983" lon="5.209909"><ele>21.62921</ele></rtept><rtept lat="51.432343" lon="5.209555"><ele>21.58977</ele></rtept><rtept lat="51.432137" lon="5.209343"><ele>21.57553</ele></rtept><rtept lat="51.431885" lon="5.20924"><ele>21.55747</ele></rtept><rtept lat="51.431713" lon="5.208915"><ele>21.52813</ele></rtept><rtept lat="51.431526" lon="5.208811"><ele>21.5066</ele></rtept><rtept lat="51.431194" lon="5.208479"><ele>21.46372</ele></rtept><rtept lat="51.431152" lon="5.208397"><ele>21.45631</ele></rtept><rtept lat="51.430878" lon="5.207877"><ele>21.40969</ele></rtept><rtept lat="51.430588" lon="5.206798"><ele>21.55178</ele></rtept><rtept lat="51.43035" lon="5.205031"><ele>22.17482</ele></rtept><rtept lat="51.43033" lon="5.204883"><ele>22.22715</ele></rtept><rtept lat="51.43026" lon="5.204781"><ele>22.27862</ele></rtept><rtept lat="51.430206" lon="5.204354"><ele>22.38881</ele></rtept><rtept lat="51.429993" lon="5.202629"><ele>22.63943</ele></rtept><rtept lat="51.430428" lon="5.201094"><ele>22.71975</ele></rtept><rtept lat="51.430447" lon="5.201024"><ele>22.71449</ele></rtept><rtept lat="51.430458" lon="5.200986"><ele>22.71162</ele></rtept><rtept lat="51.43057" lon="5.200591"><ele>22.6821</ele></rtept><rtept lat="51.43058" lon="5.200225"><ele>22.65705</ele></rtept><rtept lat="51.430557" lon="5.199989"><ele>22.64076</ele></rtept><rtept lat="51.430344" lon="5.199153"><ele>22.57899</ele></rtept><rtept lat="51.43021" lon="5.198814"><ele>22.54535</ele></rtept><rtept lat="51.429882" lon="5.198253"><ele>22.47825</ele></rtept><rtept lat="51.429806" lon="5.198062"><ele>22.45844</ele></rtept><rtept lat="51.42969" lon="5.197653"><ele>22.41952</ele></rtept><rtept lat="51.429066" lon="5.19762"><ele>22.332</ele></rtept><rtept lat="51.426567" lon="5.197576"><ele>22.20537</ele></rtept><rtept lat="51.425465" lon="5.197525"><ele>22.16913</ele></rtept><rtept lat="51.42467" lon="5.197534"><ele>22.05574</ele></rtept><rtept lat="51.423775" lon="5.197514"><ele>21.92008</ele></rtept><rtept lat="51.423725" lon="5.197544"><ele>21.912</ele></rtept><rtept lat="51.42371" lon="5.197612"><ele>21.90524</ele></rtept><rtept lat="51.42436" lon="5.200699"><ele>21.60063</ele></rtept><rtept lat="51.424446" lon="5.201022"><ele>21.56035</ele></rtept><rtept lat="51.42575" lon="5.205058"><ele>21.04329</ele></rtept><rtept lat="51.42566" lon="5.205124"><ele>21.0252</ele></rtept><rtept lat="51.425434" lon="5.205508"><ele>20.97469</ele></rtept><rtept lat="51.425323" lon="5.205805"><ele>20.97404</ele></rtept><rtept lat="51.42525" lon="5.206066"><ele>20.9735</ele></rtept><rtept lat="51.425205" lon="5.206761"><ele>20.9722</ele></rtept><rtept lat="51.424946" lon="5.206767"><ele>20.97142</ele></rtept><rtept lat="51.424213" lon="5.206782"><ele>21.00268</ele></rtept><rtept lat="51.42367" lon="5.206793"><ele>21.247</ele></rtept><rtept lat="51.42338" lon="5.2068"><ele>21.37887</ele></rtept><rtept lat="51.423206" lon="5.206753"><ele>21.45944</ele></rtept><rtept lat="51.423065" lon="5.206668"><ele>21.52703</ele></rtept><rtept lat="51.423023" lon="5.206601"><ele>21.55315</ele></rtept><rtept lat="51.421543" lon="5.205565"><ele>22.40758</ele></rtept><rtept lat="51.421246" lon="5.205213"><ele>22.61554</ele></rtept><rtept lat="51.421146" lon="5.205032"><ele>22.69972</ele></rtept><rtept lat="51.421074" lon="5.20482"><ele>22.78475</ele></rtept><rtept lat="51.420994" lon="5.2047"><ele>22.79996</ele></rtept><rtept lat="51.420044" lon="5.203782"><ele>22.86541</ele></rtept><rtept lat="51.419765" lon="5.20359"><ele>22.8833</ele></rtept><rtept lat="51.41949" lon="5.203269"><ele>22.909</ele></rtept><rtept lat="51.41931" lon="5.203111"><ele>22.94699</ele></rtept><rtept lat="51.41903" lon="5.202897"><ele>23.00451</ele></rtept><rtept lat="51.41878" lon="5.202873"><ele>23.05014</ele></rtept><rtept lat="51.418503" lon="5.202754"><ele>23.10336</ele></rtept><rtept lat="51.418236" lon="5.202561"><ele>23.15719</ele></rtept><rtept lat="51.418034" lon="5.202352"><ele>23.20198</ele></rtept><rtept lat="51.41789" lon="5.202168"><ele>23.2407</ele></rtept><rtept lat="51.417824" lon="5.202005"><ele>23.29014</ele></rtept><rtept lat="51.417763" lon="5.201842"><ele>23.33958</ele></rtept><rtept lat="51.41761" lon="5.201585"><ele>23.43187</ele></rtept><rtept lat="51.417217" lon="5.200576"><ele>23.73926</ele></rtept><rtept lat="51.417038" lon="5.199979"><ele>23.91116</ele></rtept><rtept lat="51.416912" lon="5.199839"><ele>23.97446</ele></rtept><rtept lat="51.41678" lon="5.199839"><ele>24.01521</ele></rtept><rtept lat="51.41668" lon="5.199698"><ele>24.05487</ele></rtept><rtept lat="51.41523" lon="5.198811"><ele>24.51326</ele></rtept><rtept lat="51.414936" lon="5.198545"><ele>24.57465</ele></rtept><rtept lat="51.41421" lon="5.19789"><ele>24.72544</ele></rtept><rtept lat="51.416138" lon="5.195668"><ele>24.72015</ele></rtept><rtept lat="51.4168" lon="5.194467"><ele>24.73221</ele></rtept><rtept lat="51.41926" lon="5.190018"><ele>24.80911</ele></rtept><rtept lat="51.41899" lon="5.189338"><ele>24.7933</ele></rtept><rtept lat="51.418373" lon="5.188379"><ele>24.83978</ele></rtept><rtept lat="51.41287" lon="5.181611"><ele>25.56665</ele></rtept><rtept lat="51.411396" lon="5.1797"><ele>25.94987</ele></rtept><rtept lat="51.41076" lon="5.17878"><ele>25.9857</ele></rtept><rtept lat="51.40931" lon="5.17678"><ele>25.98309</ele></rtept><rtept lat="51.40912" lon="5.17635"><ele>25.9779</ele></rtept><rtept lat="51.40871" lon="5.17476"><ele>25.85755</ele></rtept><rtept lat="51.40859" lon="5.17439"><ele>25.82751</ele></rtept><rtept lat="51.408337" lon="5.173827"><ele>25.77758</ele></rtept><rtept lat="51.40813" lon="5.173489"><ele>25.73916</ele></rtept><rtept lat="51.408607" lon="5.172779"><ele>25.65147</ele></rtept><rtept lat="51.408794" lon="5.172425"><ele>25.61244</ele></rtept><rtept lat="51.409023" lon="5.171822"><ele>25.55319</ele></rtept><rtept lat="51.409103" lon="5.171519"><ele>25.52616</ele></rtept><rtept lat="51.40928" lon="5.170741"><ele>25.49001</ele></rtept><rtept lat="51.40937" lon="5.169906"><ele>25.45288</ele></rtept><rtept lat="51.40945" lon="5.16859"><ele>25.39557</ele></rtept><rtept lat="51.40935" lon="5.167767"><ele>25.36244</ele></rtept><rtept lat="51.40916" lon="5.167243"><ele>25.33857</ele></rtept><rtept lat="51.40899" lon="5.166432"><ele>25.30475</ele></rtept><rtept lat="51.40886" lon="5.165774"><ele>25.26401</ele></rtept><rtept lat="51.40885" lon="5.165602"><ele>25.24743</ele></rtept><rtept lat="51.408573" lon="5.164266"><ele>25.1123</ele></rtept><rtept lat="51.409744" lon="5.162989"><ele>24.79363</ele></rtept><rtept lat="51.410404" lon="5.162211"><ele>24.55768</ele></rtept><rtept lat="51.41036" lon="5.16097"><ele>24.28512</ele></rtept><rtept lat="51.411037" lon="5.160911"><ele>24.02902</ele></rtept><rtept lat="51.411114" lon="5.158022"><ele>23.5345</ele></rtept><rtept lat="51.41117" lon="5.156966"><ele>23.39705</ele></rtept><rtept lat="51.41121" lon="5.156253"><ele>23.35296</ele></rtept><rtept lat="51.411213" lon="5.156222"><ele>23.35105</ele></rtept><rtept lat="51.411232" lon="5.154889"><ele>23.26893</ele></rtept><rtept lat="51.411274" lon="5.15376"><ele>23.16372</ele></rtept><rtept lat="51.412" lon="5.153392"><ele>22.99861</ele></rtept><rtept lat="51.41315" lon="5.152552"><ele>22.87657</ele></rtept><rtept lat="51.413094" lon="5.150962"><ele>22.94995</ele></rtept><rtept lat="51.413136" lon="5.150919"><ele>22.95363</ele></rtept><rtept lat="51.41396" lon="5.14878"><ele>23.55126</ele></rtept><rtept lat="51.4142" lon="5.14821"><ele>23.73764</ele></rtept><rtept lat="51.41445" lon="5.14773"><ele>23.80543</ele></rtept><rtept lat="51.414986" lon="5.146855"><ele>23.91953</ele></rtept><rtept lat="51.415024" lon="5.146792"><ele>23.92769</ele></rtept><rtept lat="51.415234" lon="5.146623"><ele>23.96247</ele></rtept><rtept lat="51.415516" lon="5.146448"><ele>24.00799</ele></rtept><rtept lat="51.41556" lon="5.146417"><ele>24.01502</ele></rtept><rtept lat="51.41559" lon="5.146397"><ele>24.01946</ele></rtept><rtept lat="51.415646" lon="5.146353"><ele>24.0099</ele></rtept><rtept lat="51.415657" lon="5.146233"><ele>23.99559</ele></rtept><rtept lat="51.415764" lon="5.146132"><ele>23.97236</ele></rtept><rtept lat="51.415745" lon="5.146058"><ele>23.96303</ele></rtept><rtept lat="51.415726" lon="5.14597"><ele>23.95203</ele></rtept><rtept lat="51.415703" lon="5.145878"><ele>23.94039</ele></rtept><rtept lat="51.415585" lon="5.145945"><ele>23.91699</ele></rtept><rtept lat="51.41558" lon="5.14586"><ele>23.90691</ele></rtept><rtept lat="51.415592" lon="5.145767"><ele>23.89563</ele></rtept><rtept lat="51.415604" lon="5.145736"><ele>23.89153</ele></rtept><rtept lat="51.415886" lon="5.144888"><ele>23.77855</ele></rtept><rtept lat="51.41592" lon="5.14479"><ele>23.76546</ele></rtept><rtept lat="51.415928" lon="5.14458"><ele>23.74075</ele></rtept><rtept lat="51.415897" lon="5.144374"><ele>23.71581</ele></rtept><rtept lat="51.4156" lon="5.143376"><ele>23.74822</ele></rtept><rtept lat="51.41517" lon="5.14201"><ele>23.87256</ele></rtept><rtept lat="51.41429" lon="5.142478"><ele>24.06367</ele></rtept><rtept lat="51.412594" lon="5.143289"><ele>24.39243</ele></rtept><rtept lat="51.412277" lon="5.143429"><ele>24.4079</ele></rtept><rtept lat="51.412117" lon="5.143466"><ele>24.41553</ele></rtept><rtept lat="51.41062" lon="5.142889"><ele>24.33309</ele></rtept><rtept lat="51.409943" lon="5.142648"><ele>24.22965</ele></rtept><rtept lat="51.409695" lon="5.142559"><ele>24.1917</ele></rtept><rtept lat="51.409363" lon="5.142581"><ele>24.17278</ele></rtept><rtept lat="51.409073" lon="5.142673"><ele>24.16156</ele></rtept><rtept lat="51.408306" lon="5.143084"><ele>24.13102</ele></rtept><rtept lat="51.408253" lon="5.143112"><ele>24.12899</ele></rtept><rtept lat="51.407555" lon="5.143491"><ele>24.12106</ele></rtept><rtept lat="51.407536" lon="5.1435"><ele>24.12134</ele></rtept><rtept lat="51.407116" lon="5.143728"><ele>24.12826</ele></rtept><rtept lat="51.40647" lon="5.144075"><ele>24.13883</ele></rtept><rtept lat="51.40642" lon="5.144114"><ele>24.1397</ele></rtept><rtept lat="51.406322" lon="5.143685"><ele>24.14345</ele></rtept><rtept lat="51.406303" lon="5.143559"><ele>24.14374</ele></rtept><rtept lat="51.40608" lon="5.141804"><ele>24.1477</ele></rtept><rtept lat="51.40604" lon="5.141494"><ele>24.1484</ele></rtept><rtept lat="51.40603" lon="5.141411"><ele>24.14859</ele></rtept><rtept lat="51.406013" lon="5.141273"><ele>24.1489</ele></rtept><rtept lat="51.40583" lon="5.13965"><ele>24.75615</ele></rtept><rtept lat="51.40574" lon="5.13918"><ele>24.98173</ele></rtept><rtept lat="51.40545" lon="5.13826"><ele>25.45469</ele></rtept><rtept lat="51.40674" lon="5.13654"><ele>25.06303</ele></rtept><rtept lat="51.40693" lon="5.13618"><ele>25.01249</ele></rtept><rtept lat="51.40744" lon="5.1347"><ele>24.9092</ele></rtept><rtept lat="51.408222" lon="5.133717"><ele>25.06072</ele></rtept><rtept lat="51.40836" lon="5.133544"><ele>25.15287</ele></rtept><rtept lat="51.40843" lon="5.133153"><ele>25.28634</ele></rtept><rtept lat="51.408173" lon="5.132262"><ele>25.60842</ele></rtept><rtept lat="51.408195" lon="5.131851"><ele>25.74385</ele></rtept><rtept lat="51.408287" lon="5.131413"><ele>25.85619</ele></rtept><rtept lat="51.407703" lon="5.129499"><ele>26.27795</ele></rtept><rtept lat="51.40765" lon="5.129428"><ele>26.30063</ele></rtept><rtept lat="51.407627" lon="5.129195"><ele>26.34723</ele></rtept><rtept lat="51.407627" lon="5.129191"><ele>26.34808</ele></rtept><rtept lat="51.40739" lon="5.128456"><ele>26.36867</ele></rtept><rtept lat="51.407158" lon="5.127632"><ele>26.36906</ele></rtept><rtept lat="51.407" lon="5.127239"><ele>26.36926</ele></rtept><rtept lat="51.406975" lon="5.12702"><ele>26.36936</ele></rtept><rtept lat="51.40681" lon="5.126779"><ele>26.36951</ele></rtept><rtept lat="51.406715" lon="5.126417"><ele>26.35083</ele></rtept><rtept lat="51.406704" lon="5.126183"><ele>26.32682</ele></rtept><rtept lat="51.4066" lon="5.12594"><ele>26.29691</ele></rtept><rtept lat="51.406403" lon="5.125287"><ele>26.22268</ele></rtept><rtept lat="51.40632" lon="5.12513"><ele>26.20155</ele></rtept><rtept lat="51.406223" lon="5.124777"><ele>26.16229</ele></rtept><rtept lat="51.406155" lon="5.124342"><ele>26.11648</ele></rtept><rtept lat="51.40592" lon="5.124135"><ele>26.0743</ele></rtept><rtept lat="51.405376" lon="5.124553"><ele>26.04605</ele></rtept><rtept lat="51.40496" lon="5.121996"><ele>25.95333</ele></rtept><rtept lat="51.40494" lon="5.121894"><ele>25.94801</ele></rtept><rtept lat="51.404327" lon="5.122709"><ele>25.88452</ele></rtept><rtept lat="51.404236" lon="5.122786"><ele>25.87624</ele></rtept><rtept lat="51.40416" lon="5.122849"><ele>25.86948</ele></rtept><rtept lat="51.40364" lon="5.123553"><ele>25.99177</ele></rtept><rtept lat="51.401356" lon="5.126714"><ele>27.31218</ele></rtept><rtept lat="51.400665" lon="5.125741"><ele>27.67304</ele></rtept><rtept lat="51.399677" lon="5.124346"><ele>28.02188</ele></rtept><rtept lat="51.399628" lon="5.124275"><ele>28.01192</ele></rtept><rtept lat="51.39911" lon="5.12357"><ele>27.91306</ele></rtept><rtept lat="51.39818" lon="5.12213"><ele>28.06816</ele></rtept><rtept lat="51.39772" lon="5.121492"><ele>28.39743</ele></rtept><rtept lat="51.398006" lon="5.120918"><ele>28.64554</ele></rtept><rtept lat="51.39861" lon="5.119723"><ele>28.92832</ele></rtept><rtept lat="51.398804" lon="5.119329"><ele>28.99644</ele></rtept><rtept lat="51.39861" lon="5.119723"><ele>29.06457</ele></rtept><rtept lat="51.398006" lon="5.120918"><ele>28.84089</ele></rtept><rtept lat="51.39673" lon="5.117781"><ele>27.70397</ele></rtept><rtept lat="51.395615" lon="5.115116"><ele>27.6875</ele></rtept><rtept lat="51.395363" lon="5.114507"><ele>27.76826</ele></rtept><rtept lat="51.39643" lon="5.112997"><ele>28.85154</ele></rtept><rtept lat="51.397255" lon="5.1118"><ele>29.52193</ele></rtept><rtept lat="51.397476" lon="5.11146"><ele>29.66377</ele></rtept><rtept lat="51.39805" lon="5.110716"><ele>30.00413</ele></rtept><rtept lat="51.398106" lon="5.110636"><ele>30.03991</ele></rtept><rtept lat="51.398174" lon="5.110546"><ele>30.04264</ele></rtept><rtept lat="51.399044" lon="5.113169"><ele>29.72839</ele></rtept><rtept lat="51.40043" lon="5.116399"><ele>29.25368</ele></rtept><rtept lat="51.40317" lon="5.112351"><ele>28.40899</ele></rtept><rtept lat="51.403904" lon="5.111235"><ele>28.26518</ele></rtept><rtept lat="51.405525" lon="5.108725"><ele>28.08248</ele></rtept><rtept lat="51.40577" lon="5.108345"><ele>28.08483</ele></rtept><rtept lat="51.405807" lon="5.108282"><ele>28.08521</ele></rtept><rtept lat="51.40585" lon="5.108364"><ele>28.08567</ele></rtept><rtept lat="51.405838" lon="5.109303"><ele>28.0897</ele></rtept><rtept lat="51.406845" lon="5.109966"><ele>28.2763</ele></rtept><rtept lat="51.40774" lon="5.11083"><ele>28.48409</ele></rtept><rtept lat="51.40848" lon="5.111298"><ele>28.60713</ele></rtept><rtept lat="51.408955" lon="5.111596"><ele>28.68531</ele></rtept><rtept lat="51.41033" lon="5.112765"><ele>28.83255</ele></rtept><rtept lat="51.41056" lon="5.113067"><ele>28.85549</ele></rtept><rtept lat="51.410927" lon="5.113496"><ele>28.85902</ele></rtept><rtept lat="51.411674" lon="5.111111"><ele>28.65377</ele></rtept><rtept lat="51.41171" lon="5.110913"><ele>28.6232</ele></rtept><rtept lat="51.411777" lon="5.11065"><ele>28.58073</ele></rtept><rtept lat="51.41254" lon="5.10786"><ele>28.22478</ele></rtept><rtept lat="51.41276" lon="5.107215"><ele>28.21943</ele></rtept><rtept lat="51.41287" lon="5.107053"><ele>28.21775</ele></rtept><rtept lat="51.41305" lon="5.106825"><ele>28.21504</ele></rtept><rtept lat="51.415916" lon="5.101281"><ele>28.39764</ele></rtept><rtept lat="51.416023" lon="5.101113"><ele>28.42568</ele></rtept><rtept lat="51.416042" lon="5.101097"><ele>28.42936</ele></rtept><rtept lat="51.416492" lon="5.100666"><ele>28.52751</ele></rtept><rtept lat="51.416855" lon="5.100249"><ele>28.61011</ele></rtept><rtept lat="51.4169" lon="5.100396"><ele>28.62948</ele></rtept><rtept lat="51.41691" lon="5.101475"><ele>28.57114</ele></rtept><rtept lat="51.416767" lon="5.102132"><ele>28.48737</ele></rtept><rtept lat="51.416386" lon="5.103639"><ele>28.30478</ele></rtept><rtept lat="51.41637" lon="5.104405"><ele>28.26178</ele></rtept><rtept lat="51.4165" lon="5.105197"><ele>28.21583</ele></rtept><rtept lat="51.416622" lon="5.105811"><ele>28.17965</ele></rtept><rtept lat="51.41704" lon="5.10719"><ele>27.88257</ele></rtept><rtept lat="51.417095" lon="5.107845"><ele>27.71805</ele></rtept><rtept lat="51.417053" lon="5.1093"><ele>27.34462</ele></rtept><rtept lat="51.417118" lon="5.109814"><ele>27.19693</ele></rtept><rtept lat="51.4173" lon="5.110177"><ele>27.06569</ele></rtept><rtept lat="51.417675" lon="5.110404"><ele>26.88459</ele></rtept><rtept lat="51.418034" lon="5.110688"><ele>26.70454</ele></rtept><rtept lat="51.418453" lon="5.110935"><ele>26.65215</ele></rtept><rtept lat="51.41918" lon="5.111433"><ele>26.73535</ele></rtept><rtept lat="51.41939" lon="5.111905"><ele>26.77352</ele></rtept><rtept lat="51.419495" lon="5.112373"><ele>26.80605</ele></rtept><rtept lat="51.419785" lon="5.113416"><ele>26.7288</ele></rtept><rtept lat="51.42004" lon="5.113853"><ele>26.67995</ele></rtept><rtept lat="51.420372" lon="5.114415"><ele>26.61714</ele></rtept><rtept lat="51.420685" lon="5.114878"><ele>26.50993</ele></rtept><rtept lat="51.420815" lon="5.115181"><ele>26.38779</ele></rtept><rtept lat="51.421062" lon="5.116049"><ele>26.07116</ele></rtept><rtept lat="51.421635" lon="5.118043"><ele>25.47377</ele></rtept><rtept lat="51.421837" lon="5.118774"><ele>25.33348</ele></rtept><rtept lat="51.421997" lon="5.119343"><ele>25.22435</ele></rtept><rtept lat="51.422314" lon="5.120475"><ele>25.0309</ele></rtept><rtept lat="51.422424" lon="5.120959"><ele>24.96019</ele></rtept><rtept lat="51.422546" lon="5.121471"><ele>24.88535</ele></rtept><rtept lat="51.422737" lon="5.123637"><ele>24.49834</ele></rtept><rtept lat="51.42282" lon="5.124522"><ele>24.29608</ele></rtept><rtept lat="51.42306" lon="5.126652"><ele>24.07603</ele></rtept><rtept lat="51.4229" lon="5.127579"><ele>24.08159</ele></rtept><rtept lat="51.422993" lon="5.128214"><ele>24.08535</ele></rtept><rtept lat="51.42307" lon="5.128609"><ele>24.16083</ele></rtept><rtept lat="51.423195" lon="5.128933"><ele>24.25456</ele></rtept><rtept lat="51.423588" lon="5.129662"><ele>24.49266</ele></rtept><rtept lat="51.42402" lon="5.130268"><ele>24.71869</ele></rtept><rtept lat="51.424393" lon="5.130864"><ele>24.82974</ele></rtept><rtept lat="51.42475" lon="5.131821"><ele>24.89888</ele></rtept><rtept lat="51.424877" lon="5.132464"><ele>24.94048</ele></rtept><rtept lat="51.424908" lon="5.132644"><ele>24.95202</ele></rtept><rtept lat="51.42494" lon="5.133396"><ele>24.99055</ele></rtept><rtept lat="51.42494" lon="5.134153"><ele>25.02106</ele></rtept><rtept lat="51.42487" lon="5.135277"><ele>25.0666</ele></rtept><rtept lat="51.424862" lon="5.135358"><ele>25.06988</ele></rtept><rtept lat="51.42487" lon="5.135822"><ele>25.08859</ele></rtept><rtept lat="51.4249" lon="5.136339"><ele>25.04796</ele></rtept><rtept lat="51.425037" lon="5.13772"><ele>24.90943</ele></rtept><rtept lat="51.425007" lon="5.138308"><ele>24.85095</ele></rtept><rtept lat="51.42508" lon="5.138714"><ele>24.80895</ele></rtept><rtept lat="51.425343" lon="5.139261"><ele>24.79054</ele></rtept><rtept lat="51.425453" lon="5.139389"><ele>24.78533</ele></rtept><rtept lat="51.42565" lon="5.139238"><ele>24.77712</ele></rtept><rtept lat="51.42623" lon="5.1393"><ele>24.75546</ele></rtept><rtept lat="51.426495" lon="5.13943"><ele>24.74509</ele></rtept><rtept lat="51.426804" lon="5.139501"><ele>24.72871</ele></rtept><rtept lat="51.42835" lon="5.139471"><ele>24.6187</ele></rtept><rtept lat="51.428703" lon="5.139464"><ele>24.59599</ele></rtept><rtept lat="51.428707" lon="5.139572"><ele>24.59189</ele></rtept><rtept lat="51.428883" lon="5.139382"><ele>24.57895</ele></rtept><rtept lat="51.429108" lon="5.139292"><ele>24.56486</ele></rtept><rtept lat="51.43123" lon="5.139287"><ele>24.37946</ele></rtept><rtept lat="51.431755" lon="5.139286"><ele>24.32002</ele></rtept><rtept lat="51.431545" lon="5.137376"><ele>24.23968</ele></rtept><rtept lat="51.431343" lon="5.135523"><ele>24.16217</ele></rtept><rtept lat="51.431335" lon="5.135318"><ele>24.1513</ele></rtept><rtept lat="51.432034" lon="5.133232"><ele>24.00921</ele></rtept><rtept lat="51.43206" lon="5.13315"><ele>23.99916</ele></rtept><rtept lat="51.43222" lon="5.133266"><ele>23.96789</ele></rtept><rtept lat="51.432426" lon="5.133564"><ele>23.91938</ele></rtept><rtept lat="51.433315" lon="5.135147"><ele>23.67855</ele></rtept><rtept lat="51.43399" lon="5.135468"><ele>23.53149</ele></rtept><rtept lat="51.434765" lon="5.135794"><ele>23.36388</ele></rtept><rtept lat="51.435776" lon="5.13573"><ele>23.56442</ele></rtept><rtept lat="51.437134" lon="5.135626"><ele>23.81954</ele></rtept><rtept lat="51.438515" lon="5.13554"><ele>23.96509</ele></rtept><rtept lat="51.440105" lon="5.135441"><ele>23.75351</ele></rtept><rtept lat="51.44389" lon="5.135207"><ele>22.7801</ele></rtept><rtept lat="51.44403" lon="5.135105"><ele>22.78904</ele></rtept><rtept lat="51.44459" lon="5.134587"><ele>22.82563</ele></rtept><rtept lat="51.44531" lon="5.13386"><ele>22.87391</ele></rtept><rtept lat="51.44627" lon="5.13279"><ele>22.80854</ele></rtept><rtept lat="51.446358" lon="5.132705"><ele>22.802</ele></rtept><rtept lat="51.44573" lon="5.129891"><ele>22.44815</ele></rtept><rtept lat="51.445667" lon="5.129739"><ele>22.41996</ele></rtept><rtept lat="51.44472" lon="5.128338"><ele>22.35399</ele></rtept><rtept lat="51.44467" lon="5.127945"><ele>22.36565</ele></rtept><rtept lat="51.44463" lon="5.127606"><ele>22.3757</ele></rtept><rtept lat="51.444157" lon="5.126574"><ele>22.32702</ele></rtept><rtept lat="51.44332" lon="5.124738"><ele>22.02179</ele></rtept><rtept lat="51.44311" lon="5.124241"><ele>22.07524</ele></rtept><rtept lat="51.44282" lon="5.123199"><ele>22.21838</ele></rtept><rtept lat="51.442684" lon="5.122858"><ele>22.26968</ele></rtept><rtept lat="51.442413" lon="5.122324"><ele>22.35595</ele></rtept><rtept lat="51.443058" lon="5.122461"><ele>22.35761</ele></rtept><rtept lat="51.443214" lon="5.122452"><ele>22.35332</ele></rtept><rtept lat="51.44341" lon="5.122183"><ele>22.34636</ele></rtept><rtept lat="51.443634" lon="5.121806"><ele>22.33757</ele></rtept><rtept lat="51.443687" lon="5.121739"><ele>22.33571</ele></rtept><rtept lat="51.444748" lon="5.121731"><ele>22.20872</ele></rtept><rtept lat="51.444866" lon="5.121813"><ele>22.18537</ele></rtept><rtept lat="51.4458" lon="5.123903"><ele>21.93597</ele></rtept><rtept lat="51.445934" lon="5.123945"><ele>21.92154</ele></rtept><rtept lat="51.4466" lon="5.124101"><ele>21.84838</ele></rtept><rtept lat="51.447445" lon="5.124296"><ele>21.81855</ele></rtept><rtept lat="51.448658" lon="5.12682"><ele>21.86001</ele></rtept><rtept lat="51.448845" lon="5.127211"><ele>21.85618</ele></rtept><rtept lat="51.448853" lon="5.126828"><ele>21.85321</ele></rtept><rtept lat="51.44869" lon="5.125086"><ele>21.90125</ele></rtept><rtept lat="51.448677" lon="5.124972"><ele>21.90991</ele></rtept><rtept lat="51.448685" lon="5.124307"><ele>21.95982</ele></rtept><rtept lat="51.448727" lon="5.123867"><ele>21.99319</ele></rtept><rtept lat="51.44879" lon="5.12346"><ele>22.02478</ele></rtept><rtept lat="51.448895" lon="5.123048"><ele>22.05805</ele></rtept><rtept lat="51.449375" lon="5.122523"><ele>22.13861</ele></rtept><rtept lat="51.451218" lon="5.120518"><ele>22.39043</ele></rtept><rtept lat="51.453636" lon="5.117887"><ele>22.55037</ele></rtept><rtept lat="51.453705" lon="5.117817"><ele>22.54584</ele></rtept><rtept lat="51.453785" lon="5.117754"><ele>22.54073</ele></rtept><rtept lat="51.45568" lon="5.118111"><ele>22.50128</ele></rtept><rtept lat="51.45685" lon="5.118332"><ele>22.57195</ele></rtept><rtept lat="51.457268" lon="5.117934"><ele>22.73943</ele></rtept><rtept lat="51.457394" lon="5.117824"><ele>22.79256</ele></rtept><rtept lat="51.45835" lon="5.116912"><ele>23.20576</ele></rtept><rtept lat="51.45847" lon="5.116798"><ele>23.24079</ele></rtept><rtept lat="51.459404" lon="5.115906"><ele>23.24768</ele></rtept><rtept lat="51.46038" lon="5.114956"><ele>23.15748</ele></rtept><rtept lat="51.460506" lon="5.114993"><ele>23.13175</ele></rtept><rtept lat="51.46061" lon="5.114981"><ele>23.11156</ele></rtept><rtept lat="51.460842" lon="5.114706"><ele>23.05389</ele></rtept><rtept lat="51.46089" lon="5.114639"><ele>23.04075</ele></rtept><rtept lat="51.46129" lon="5.114338"><ele>22.95357</ele></rtept><rtept lat="51.46189" lon="5.113708"><ele>22.96551</ele></rtept><rtept lat="51.46202" lon="5.113536"><ele>22.99481</ele></rtept><rtept lat="51.46218" lon="5.113326"><ele>23.03059</ele></rtept><rtept lat="51.462257" lon="5.113168"><ele>23.05234</ele></rtept><rtept lat="51.462315" lon="5.113132"><ele>23.06278</ele></rtept><rtept lat="51.463802" lon="5.112965"><ele>23.13741</ele></rtept><rtept lat="51.465454" lon="5.11278"><ele>22.86673</ele></rtept><rtept lat="51.466984" lon="5.11268"><ele>22.40961</ele></rtept><rtept lat="51.467323" lon="5.112658"><ele>22.30701</ele></rtept><rtept lat="51.46769" lon="5.113976"><ele>22.03688</ele></rtept><rtept lat="51.46927" lon="5.112443"><ele>21.64064</ele></rtept><rtept lat="51.46918" lon="5.110737"><ele>21.5376</ele></rtept><rtept lat="51.46915" lon="5.110156"><ele>21.5138</ele></rtept><rtept lat="51.469574" lon="5.109978"><ele>21.48502</ele></rtept><rtept lat="51.470783" lon="5.110045"><ele>21.33005</ele></rtept><rtept lat="51.471043" lon="5.110059"><ele>21.29415</ele></rtept><rtept lat="51.472294" lon="5.110127"><ele>20.92114</ele></rtept><rtept lat="51.472553" lon="5.109875"><ele>20.79751</ele></rtept><rtept lat="51.47261" lon="5.110152"><ele>20.72367</ele></rtept><rtept lat="51.472885" lon="5.111524"><ele>20.39332</ele></rtept><rtept lat="51.473232" lon="5.111175"><ele>20.27107</ele></rtept><rtept lat="51.475067" lon="5.10932"><ele>19.78767</ele></rtept><rtept lat="51.475174" lon="5.1092"><ele>19.76816</ele></rtept><rtept lat="51.47605" lon="5.108308"><ele>19.57399</ele></rtept><rtept lat="51.47736" lon="5.106982"><ele>19.22703</ele></rtept><rtept lat="51.47947" lon="5.103725"><ele>18.76883</ele></rtept><rtept lat="51.479027" lon="5.10213"><ele>18.86492</ele></rtept><rtept lat="51.47923" lon="5.10114"><ele>19.01602</ele></rtept><rtept lat="51.47965" lon="5.100265"><ele>19.21171</ele></rtept><rtept lat="51.479687" lon="5.100173"><ele>19.24107</ele></rtept><rtept lat="51.479652" lon="5.100009"><ele>19.287</ele></rtept><rtept lat="51.47912" lon="5.098435"><ele>19.76805</ele></rtept><rtept lat="51.478546" lon="5.096893"><ele>20.17112</ele></rtept><rtept lat="51.477547" lon="5.094152"><ele>20.77609</ele></rtept><rtept lat="51.477196" lon="5.093202"><ele>20.96768</ele></rtept><rtept lat="51.475933" lon="5.089685"><ele>20.8987</ele></rtept><rtept lat="51.473484" lon="5.082868"><ele>20.60215</ele></rtept><rtept lat="51.47319" lon="5.082033"><ele>20.73483</ele></rtept><rtept lat="51.473164" lon="5.081956"><ele>20.74717</ele></rtept><rtept lat="51.47252" lon="5.08029"><ele>20.95051</ele></rtept><rtept lat="51.471962" lon="5.079015"><ele>20.78187</ele></rtept><rtept lat="51.47135" lon="5.079614"><ele>20.6615</ele></rtept><rtept lat="51.471226" lon="5.080013"><ele>20.63149</ele></rtept><rtept lat="51.47117" lon="5.080567"><ele>20.59378</ele></rtept><rtept lat="51.471176" lon="5.080865"><ele>20.57376</ele></rtept><rtept lat="51.471294" lon="5.081357"><ele>20.53844</ele></rtept><rtept lat="51.469963" lon="5.082216"><ele>20.75608</ele></rtept><rtept lat="51.469803" lon="5.082843"><ele>20.89834</ele></rtept><rtept lat="51.46974" lon="5.083038"><ele>20.944</ele></rtept><rtept lat="51.46967" lon="5.083164"><ele>20.98013</ele></rtept><rtept lat="51.46895" lon="5.083685"><ele>21.02204</ele></rtept><rtept lat="51.467598" lon="5.084556"><ele>20.77155</ele></rtept><rtept lat="51.466343" lon="5.08533"><ele>19.91117</ele></rtept><rtept lat="51.465176" lon="5.086054"><ele>19.43061</ele></rtept><rtept lat="51.461994" lon="5.088137"><ele>19.73855</ele></rtept><rtept lat="51.46202" lon="5.088585"><ele>19.88309</ele></rtept><rtept lat="51.46191" lon="5.088962"><ele>20.01704</ele></rtept><rtept lat="51.46128" lon="5.091091"><ele>20.77296</ele></rtept><rtept lat="51.46123" lon="5.091789"><ele>20.99811</ele></rtept><rtept lat="51.459892" lon="5.09258"><ele>21.22896</ele></rtept><rtept lat="51.45816" lon="5.089454"><ele>21.88338</ele></rtept><rtept lat="51.458008" lon="5.089175"><ele>21.96781</ele></rtept><rtept lat="51.457855" lon="5.089347"><ele>22.03512</ele></rtept><rtept lat="51.457706" lon="5.089441"><ele>22.09399</ele></rtept><rtept lat="51.457504" lon="5.089498"><ele>22.16748</ele></rtept><rtept lat="51.457157" lon="5.089384"><ele>22.29624</ele></rtept><rtept lat="51.456295" lon="5.089481"><ele>22.69348</ele></rtept><rtept lat="51.455257" lon="5.089494"><ele>23.3789</ele></rtept><rtept lat="51.455254" lon="5.089353"><ele>23.43706</ele></rtept><rtept lat="51.454094" lon="5.090095"><ele>24.13419</ele></rtept><rtept lat="51.453568" lon="5.089413"><ele>24.47923</ele></rtept><rtept lat="51.45304" lon="5.088732"><ele>24.65522</ele></rtept><rtept lat="51.452515" lon="5.08805"><ele>24.71749</ele></rtept><rtept lat="51.45234" lon="5.087764"><ele>24.74047</ele></rtept><rtept lat="51.45403" lon="5.086652"><ele>24.43328</ele></rtept><rtept lat="51.455948" lon="5.085415"><ele>23.6483</ele></rtept><rtept lat="51.461563" lon="5.081855"><ele>20.38854</ele></rtept><rtept lat="51.462097" lon="5.082585"><ele>20.10499</ele></rtept><rtept lat="51.462204" lon="5.082596"><ele>20.06155</ele></rtept><rtept lat="51.462265" lon="5.08253"><ele>20.03175</ele></rtept><rtept lat="51.46283" lon="5.0816"><ele>19.68107</ele></rtept><rtept lat="51.46323" lon="5.081054"><ele>19.43381</ele></rtept><rtept lat="51.46334" lon="5.080855"><ele>19.35579</ele></rtept><rtept lat="51.463566" lon="5.080296"><ele>19.1614</ele></rtept><rtept lat="51.463737" lon="5.079699"><ele>19.01158</ele></rtept><rtept lat="51.463745" lon="5.079605"><ele>19.01433</ele></rtept><rtept lat="51.4638" lon="5.078917"><ele>19.03437</ele></rtept><rtept lat="51.46422" lon="5.078996"><ele>19.0541</ele></rtept><rtept lat="51.464817" lon="5.078966"><ele>19.08183</ele></rtept><rtept lat="51.46686" lon="5.078383"><ele>19.76097</ele></rtept><rtept lat="51.467876" lon="5.078031"><ele>20.32243</ele></rtept><rtept lat="51.46879" lon="5.077703"><ele>20.75738</ele></rtept><rtept lat="51.469566" lon="5.077258"><ele>20.96727</ele></rtept><rtept lat="51.46972" lon="5.077116"><ele>21.01201</ele></rtept><rtept lat="51.469948" lon="5.076979"><ele>21.07442</ele></rtept><rtept lat="51.47032" lon="5.076558"><ele>21.13125</ele></rtept><rtept lat="51.47" lon="5.075993"><ele>21.06916</ele></rtept><rtept lat="51.47091" lon="5.074965"><ele>20.92401</ele></rtept><rtept lat="51.47056" lon="5.07289"><ele>20.8923</ele></rtept><rtept lat="51.47047" lon="5.070634"><ele>20.94051</ele></rtept><rtept lat="51.470467" lon="5.066695"><ele>21.05017</ele></rtept><rtept lat="51.470516" lon="5.051415"><ele>22.56724</ele></rtept><rtept lat="51.470516" lon="5.051125"><ele>22.62202</ele></rtept><rtept lat="51.470516" lon="5.050959"><ele>22.65337</ele></rtept><rtept lat="51.470516" lon="5.04923"><ele>22.97994</ele></rtept><rtept lat="51.470528" lon="5.048573"><ele>23.02999</ele></rtept><rtept lat="51.47055" lon="5.048262"><ele>23.02906</ele></rtept><rtept lat="51.471085" lon="5.048508"><ele>23.02641</ele></rtept><rtept lat="51.47107" lon="5.048381"><ele>23.02602</ele></rtept><rtept lat="51.471066" lon="5.047614"><ele>23.02374</ele></rtept><rtept lat="51.47108" lon="5.04584"><ele>22.69816</ele></rtept><rtept lat="51.471375" lon="5.045975"><ele>22.58122</ele></rtept><rtept lat="51.471664" lon="5.046028"><ele>22.47178</ele></rtept><rtept lat="51.47197" lon="5.045928"><ele>22.35274</ele></rtept><rtept lat="51.47267" lon="5.045564"><ele>21.86711</ele></rtept><rtept lat="51.472992" lon="5.045312"><ele>21.62754</ele></rtept><rtept lat="51.4738" lon="5.044494"><ele>21.04897</ele></rtept><rtept lat="51.474873" lon="5.043535"><ele>20.58758</ele></rtept><rtept lat="51.47693" lon="5.042295"><ele>20.0789</ele></rtept><rtept lat="51.476875" lon="5.042179"><ele>20.06013</ele></rtept><rtept lat="51.47646" lon="5.041534"><ele>19.93805</ele></rtept><rtept lat="51.476303" lon="5.041223"><ele>19.88535</ele></rtept><rtept lat="51.4753" lon="5.038754"><ele>19.70969</ele></rtept><rtept lat="51.47522" lon="5.038684"><ele>19.70972</ele></rtept><rtept lat="51.47512" lon="5.038692"><ele>19.70975</ele></rtept><rtept lat="51.47411" lon="5.039535"><ele>19.76282</ele></rtept><rtept lat="51.473476" lon="5.040063"><ele>19.83391</ele></rtept><rtept lat="51.473377" lon="5.040126"><ele>19.84471</ele></rtept><rtept lat="51.47327" lon="5.040105"><ele>19.85526</ele></rtept><rtept lat="51.473194" lon="5.039986"><ele>19.86605</ele></rtept><rtept lat="51.472015" lon="5.036852"><ele>19.48792</ele></rtept><rtept lat="51.471416" lon="5.035284"><ele>19.20328</ele></rtept><rtept lat="51.472076" lon="5.034832"><ele>19.09463</ele></rtept><rtept lat="51.47222" lon="5.03479"><ele>19.09057</ele></rtept><rtept lat="51.472767" lon="5.034788"><ele>19.07559</ele></rtept><rtept lat="51.473892" lon="5.034934"><ele>19.13859</ele></rtept><rtept lat="51.473946" lon="5.035032"><ele>19.15915</ele></rtept><rtept lat="51.474052" lon="5.035131"><ele>19.18962</ele></rtept><rtept lat="51.47416" lon="5.035149"><ele>19.21654</ele></rtept><rtept lat="51.47594" lon="5.034872"><ele>19.38771</ele></rtept><rtept lat="51.47606" lon="5.034799"><ele>19.36481</ele></rtept><rtept lat="51.476547" lon="5.034717"><ele>19.27538</ele></rtept><rtept lat="51.47665" lon="5.034647"><ele>19.25562</ele></rtept><rtept lat="51.476734" lon="5.034457"><ele>19.22901</ele></rtept><rtept lat="51.476875" lon="5.034291"><ele>19.19778</ele></rtept><rtept lat="51.477753" lon="5.033785"><ele>18.92288</ele></rtept><rtept lat="51.477856" lon="5.033804"><ele>18.89111</ele></rtept><rtept lat="51.478046" lon="5.033839"><ele>18.83133</ele></rtept><rtept lat="51.478146" lon="5.03382"><ele>18.8011</ele></rtept><rtept lat="51.478264" lon="5.033711"><ele>18.75872</ele></rtept><rtept lat="51.47861" lon="5.033285"><ele>18.62359</ele></rtept><rtept lat="51.478676" lon="5.033246"><ele>18.61905</ele></rtept><rtept lat="51.47873" lon="5.03326"><ele>18.61702</ele></rtept><rtept lat="51.478775" lon="5.033313"><ele>18.61473</ele></rtept><rtept lat="51.47899" lon="5.034102"><ele>18.59371</ele></rtept><rtept lat="51.479004" lon="5.03431"><ele>18.58858</ele></rtept><rtept lat="51.4792" lon="5.035233"><ele>18.5647</ele></rtept><rtept lat="51.47933" lon="5.035599"><ele>18.55442</ele></rtept><rtept lat="51.479553" lon="5.035911"><ele>18.61221</ele></rtept><rtept lat="51.47987" lon="5.036231"><ele>18.72229</ele></rtept><rtept lat="51.48041" lon="5.036677"><ele>18.90108</ele></rtept><rtept lat="51.480522" lon="5.036799"><ele>18.94038</ele></rtept><rtept lat="51.480625" lon="5.036979"><ele>18.98514</ele></rtept><rtept lat="51.48067" lon="5.037039"><ele>19.00257</ele></rtept><rtept lat="51.48082" lon="5.037133"><ele>19.05018</ele></rtept><rtept lat="51.48107" lon="5.0372"><ele>19.09762</ele></rtept><rtept lat="51.481243" lon="5.037146"><ele>19.11755</ele></rtept><rtept lat="51.482033" lon="5.036706"><ele>19.21436</ele></rtept><rtept lat="51.482258" lon="5.036792"><ele>19.24088</ele></rtept><rtept lat="51.482903" lon="5.034452"><ele>18.87097</ele></rtept><rtept lat="51.485962" lon="5.03649"><ele>18.18614</ele></rtept><rtept lat="51.487232" lon="5.037314"><ele>18.3293</ele></rtept><rtept lat="51.48709" lon="5.038839"><ele>18.68184</ele></rtept><rtept lat="51.48702" lon="5.04212"><ele>19.12312</ele></rtept><rtept lat="51.486862" lon="5.050072"><ele>19.99948</ele></rtept><rtept lat="51.48688" lon="5.050215"><ele>19.99948</ele></rtept><rtept lat="51.48683" lon="5.050933"><ele>19.99948</ele></rtept><rtept lat="51.486835" lon="5.050985"><ele>19.99948</ele></rtept><rtept lat="51.48685" lon="5.051095"><ele>19.99948</ele></rtept><rtept lat="51.486835" lon="5.051276"><ele>19.99948</ele></rtept><rtept lat="51.486816" lon="5.051467"><ele>19.99948</ele></rtept><rtept lat="51.486973" lon="5.05151"><ele>19.99948</ele></rtept><rtept lat="51.487053" lon="5.051664"><ele>19.99948</ele></rtept><rtept lat="51.48716" lon="5.051705"><ele>19.99948</ele></rtept><rtept lat="51.487144" lon="5.051853"><ele>19.99948</ele></rtept></rte></gpx>